OBJECT_NAME,OBJECT_ID,EPOCH,MEAN_MOTION,ECCENTRICITY,INCLINATION,RA_OF_ASC_NODE,ARG_OF_PERICENTER,MEAN_ANOMALY,EPHEMERIS_TYPE,CLASSIFICATION_TYPE,NORAD_CAT_ID,ELEMENT_SET_NO,REV_AT_EPOCH,BSTAR,MEAN_MOTION_DOT,MEAN_MOTION_DDOT
STARLINK-5953,2023-078AJ,2026-06-15T12:28:46.367040,14.98332481,.0003245,69.9997,97.8128,267.4557,92.6230,0,U,56799,999,16733,-.24284E-4,-.383E-5,0
STARLINK-6036,2023-078AK,2026-06-15T12:34:47.366112,14.98325468,.0002888,69.9996,97.8299,269.9667,90.1161,0,U,56800,999,16733,.43915E-4,.431E-5,0
STARLINK-6087,2023-078AL,2026-06-15T03:21:40.009824,14.98335262,.00031552,70.0001,78.6298,262.5703,97.5098,0,U,56801,999,16777,-.25160579E-3,-.3094E-4,0
STARLINK-6029,2023-078AN,2026-06-15T12:16:45.244128,14.98330776,.0003136,69.9997,97.7869,268.6855,91.3945,0,U,56803,999,16733,.87484E-5,.11E-6,0
STARLINK-6069,2023-078AP,2026-06-15T11:34:21.782784,14.98326409,.0002689,70.0003,77.8188,259.0495,101.0362,0,U,56804,999,16849,-.54632E-5,-.158E-5,0
STARLINK-6064,2023-078AQ,2026-06-15T11:40:24.362112,14.98312564,.0002189,70.0011,77.8308,272.9485,87.1423,0,U,56805,999,16782,-.13462E-3,-.1698E-4,0
STARLINK-6072,2023-078AR,2026-06-15T02:45:16.640352,14.98330843,.00026516,70.0001,58.6594,268.5477,91.5379,0,U,56806,999,16823,.20218949E-4,.148E-5,0
STARLINK-6073,2023-078AS,2026-06-15T03:09:38.670912,14.98321699,.00030029,70.0027,78.6002,264.6752,95.4064,0,U,56807,999,16776,-.37259151E-3,-.4535E-4,0
STARLINK-6042,2023-078AT,2026-06-15T09:42:23.100192,14.98328327,.0002985,70.0002,28.1675,268.4265,91.6552,0,U,56808,999,16905,-.46035E-5,-.148E-5,0
STARLINK-6040,2023-078AU,2026-06-15T05:22:09.762240,14.98330175,.0003122,69.9999,98.3872,266.2475,93.8327,0,U,56809,999,16729,.43937E-4,.431E-5,0
STARLINK-6031,2023-078AV,2026-06-15T12:10:44.651136,14.98329963,.0002973,69.9998,97.7717,265.8252,94.2568,0,U,56810,999,16733,.67148E-5,-.13E-6,0
STARLINK-6065,2023-078AX,2026-06-15T11:22:34.652352,14.98330227,.0002848,70.0005,77.7947,269.1043,90.9790,0,U,56812,999,16782,-.63022E-4,-.845E-5,0
STARLINK-6056,2023-078AY,2026-06-15T05:16:23.363040,14.98330796,.0003062,69.9998,98.3730,269.3014,90.7794,0,U,56813,999,16729,.22958E-4,.181E-5,0
STARLINK-6059,2023-078AZ,2026-06-15T05:28:10.394112,14.98331182,.0002898,69.9999,98.4008,264.0627,96.0202,0,U,56814,999,16729,.26493E-4,.223E-5,0
STARLINK-6067,2023-078BB,2026-06-15T11:04:17.764608,14.98354227,.0002879,70.0007,77.7431,270.1679,89.9150,0,U,56816,999,16782,-.41756E-3,-.5075E-4,0
STARLINK-6028,2023-078BD,2026-06-15T05:16:09.183072,14.98334663,.0002933,70.0017,98.3716,270.4460,89.6363,0,U,56818,999,16798,.22498E-3,.2593E-4,0
STARLINK-30119,2023-079A,2026-06-15T00:53:56.701248,15.27579591,.00024698,43.0086,277.5177,278.2160,81.8412,0,U,56823,999,16820,.21795715E-4,.337E-5,0
STARLINK-30120,2023-079B,2026-06-14T14:15:11.957760,15.27575256,.0000948,43.0009,280.2103,254.6618,105.4129,0,U,56824,999,16802,-.48046E-4,-.1584E-4,0
STARLINK-30084,2023-079C,2026-06-14T14:22:24.026016,15.27571842,.000121,43.0042,279.3946,277.5034,82.5680,0,U,56825,999,16771,-.2692E-5,-.336E-5,0
STARLINK-30114,2023-079D,2026-06-15T00:42:48.509568,15.27574519,.0000759,42.9949,277.2692,140.9015,219.1892,0,U,56826,999,16808,-.963124E-6,-.288E-5,0
STARLINK-30151,2023-079E,2026-06-15T00:29:53.562048,15.27569498,.00015569,43.0103,277.3835,272.9289,87.1385,0,U,56827,999,16777,-.32371679E-4,-.1153E-4,0
STARLINK-30152,2023-079F,2026-06-15T08:00:01.999008,15.27568464,.0001424,43.0032,275.6789,264.7070,355.2037,0,U,56828,999,587,.45917E-3,.1239E-3,0
STARLINK-30128,2023-079K,2026-06-15T12:34:23.231136,15.27585335,.0000907,43.0079,248.7140,299.5521,60.5240,0,U,56832,999,16174,-.96983E-4,-.293E-4,0
STARLINK-30131,2023-079L,2026-06-15T13:12:02.369088,15.24182968,.0002853,42.9992,252.5092,332.2668,27.8030,0,U,56833,999,16810,.65328E-3,.16008E-3,0
STARLINK-30069,2023-079M,2026-06-15T00:30:35.462592,15.27569622,.00025952,43.0038,273.9840,266.7897,93.2658,0,U,56834,999,16781,-.14251164E-4,-.655E-5,0
STARLINK-30144,2023-079N,2026-06-15T13:09:52.782048,15.39098124,.0013669,42.9928,266.6813,355.9225,4.1517,0,U,56835,999,16794,.17094E-2,.6824E-3,0
STARLINK-30142,2023-079P,2026-06-15T13:20:30.319008,15.27577277,.00012,43.0010,271.1126,241.3359,118.7372,0,U,56836,999,16789,.36694E-5,-.161E-5,0
STARLINK-30133,2023-079Q,2026-06-13T14:48:11.056896,15.27584649,.0001161,42.9993,284.9060,267.8682,92.2037,0,U,56837,999,16756,.73889E-4,.1772E-4,0
STARLINK-30123,2023-079R,2026-06-14T20:05:55.362912,15.27570839,.00012518,42.9983,205.3017,268.6966,91.3743,0,U,56838,999,16860,-.14219811E-4,-.653E-5,0
STARLINK-30076,2023-079S,2026-06-15T00:28:01.460640,15.27579369,.00009456,43.0021,277.3654,257.5600,102.5146,0,U,56839,999,16777,.93445955E-4,.231E-4,0
