STARLINK-5953           
1 56799U 23078AJ  26166.51998110 -.00000383  00000+0 -24284-4 0  9990
2 56799  69.9997  97.8128 0003245 267.4557  92.6230 14.98332481167337
STARLINK-6036           
1 56800U 23078AK  26166.52415933  .00000431  00000+0  43915-4 0  9995
2 56800  69.9996  97.8299 0002888 269.9667  90.1161 14.98325468167332
STARLINK-6087           
1 56801U 23078AL  26166.14004641 -.00003094  00000+0 -25161-3 0  9996
2 56801  70.0001  78.6298 0003155 262.5703  97.5098 14.98335262167778
STARLINK-6029           
1 56803U 23078AN  26166.51163477  .00000011  00000+0  87484-5 0  9994
2 56803  69.9997  97.7869 0003136 268.6855  91.3945 14.98330776167331
STARLINK-6069           
1 56804U 23078AP  26166.48219656 -.00000158  00000+0 -54632-5 0  9995
2 56804  70.0003  77.8188 0002689 259.0495 101.0362 14.98326409168490
STARLINK-6064           
1 56805U 23078AQ  26166.48639308 -.00001698  00000+0 -13462-3 0  9990
2 56805  70.0011  77.8308 0002189 272.9485  87.1423 14.98312564167827
STARLINK-6072           
1 56806U 23078AR  26166.11477593  .00000148  00000+0  20219-4 0  9993
2 56806  70.0001  58.6594 0002651 268.5477  91.5379 14.98330843168232
STARLINK-6073           
1 56807U 23078AS  26166.13169758 -.00004535  00000+0 -37259-3 0  9994
2 56807  70.0027  78.6002 0003002 264.6752  95.4064 14.98321699167761
STARLINK-6042           
1 56808U 23078AT  26166.40443403 -.00000148  00000+0 -46035-5 0  9997
2 56808  70.0002  28.1675 0002985 268.4265  91.6552 14.98328327169050
STARLINK-6040           
1 56809U 23078AU  26166.22372410  .00000431  00000+0  43937-4 0  9997
2 56809  69.9999  98.3872 0003122 266.2475  93.8327 14.98330175167296
STARLINK-6031           
1 56810U 23078AV  26166.50746124 -.00000013  00000+0  67148-5 0  9995
2 56810  69.9998  97.7717 0002973 265.8252  94.2568 14.98329963167339
STARLINK-6065           
1 56812U 23078AX  26166.47401218 -.00000845  00000+0 -63022-4 0  9995
2 56812  70.0005  77.7947 0002848 269.1043  90.9790 14.98330227167821
STARLINK-6056           
1 56813U 23078AY  26166.21971485  .00000181  00000+0  22958-4 0  9990
2 56813  69.9998  98.3730 0003062 269.3014  90.7794 14.98330796167292
STARLINK-6059           
1 56814U 23078AZ  26166.22789808  .00000223  00000+0  26493-4 0  9993
2 56814  69.9999  98.4008 0002898 264.0627  96.0202 14.98331182167294
STARLINK-6067           
1 56816U 23078BB  26166.46131672 -.00005075  00000+0 -41756-3 0  9991
2 56816  70.0007  77.7431 0002879 270.1679  89.9150 14.98354227167820
STARLINK-6028           
1 56818U 23078BD  26166.21955073  .00002593  00000+0  22498-3 0  9997
2 56818  70.0017  98.3716 0002933 270.4460  89.6363 14.98334663167982
STARLINK-30119          
1 56823U 23079A   26166.03746182  .00000337  00000+0  21796-4 0  9998
2 56823  43.0086 277.5177 0002469 278.2160  81.8412 15.27579591168202
STARLINK-30120          
1 56824U 23079B   26165.59388840 -.00001584  00000+0 -48046-4 0  9996
2 56824  43.0009 280.2103 0000948 254.6618 105.4129 15.27575256168026
STARLINK-30084          
1 56825U 23079C   26165.59888919 -.00000336  00000+0 -26920-5 0  9991
2 56825  43.0042 279.3946 0001210 277.5034  82.5680 15.27571842167716
STARLINK-30114          
1 56826U 23079D   26166.02972812 -.00000288  00000+0 -96312-6 0  9996
2 56826  42.9949 277.2692 0000759 140.9015 219.1892 15.27574519168083
STARLINK-30151          
1 56827U 23079E   26166.02075882 -.00001153  00000+0 -32372-4 0  9994
2 56827  43.0103 277.3835 0001556 272.9289  87.1385 15.27569498167778
STARLINK-30152          
1 56828U 23079F   26166.33335647  .00012390  00000+0  45917-3 0  9998
2 56828  43.0032 275.6789 0001424 264.7070 355.2037 15.27568464  5877
STARLINK-30128          
1 56832U 23079K   26166.52387999 -.00002930  00000+0 -96983-4 0  9992
2 56832  43.0079 248.7140 0000907 299.5521  60.5240 15.27585335161744
STARLINK-30131          
1 56833U 23079L   26166.55002742  .00016008  00000+0  65328-3 0  9993
2 56833  42.9992 252.5092 0002853 332.2668  27.8030 15.24182968168107
STARLINK-30069          
1 56834U 23079M   26166.02124378 -.00000655  00000+0 -14251-4 0  9999
2 56834  43.0038 273.9840 0002595 266.7897  93.2658 15.27569622167816
STARLINK-30144          
1 56835U 23079N   26166.54852757  .00068240  00000+0  17094-2 0  9994
2 56835  42.9928 266.6813 0013669 355.9225   4.1517 15.39098124167948
STARLINK-30142          
1 56836U 23079P   26166.55590647 -.00000161  00000+0  36694-5 0  9992
2 56836  43.0010 271.1126 0001200 241.3359 118.7372 15.27577277167898
STARLINK-30133          
1 56837U 23079Q   26164.61679464  .00001772  00000+0  73889-4 0  9997
2 56837  42.9993 284.9060 0001161 267.8682  92.2037 15.27584649167563
STARLINK-30123          
1 56838U 23079R   26165.83744633 -.00000653  00000+0 -14220-4 0  9997
2 56838  42.9983 205.3017 0001251 268.6966  91.3743 15.27570839168602
STARLINK-30076          
1 56839U 23079S   26166.01946135  .00002310  00000+0  93446-4 0  9997
2 56839  43.0021 277.3654 0000945 257.5600 102.5146 15.27579369167771
